[{"id": "CN-BJ", "name": "北京市", "name_en": "Beijing", "code": "BJ", "type": "直辖市", "administrative_center": "北京市", "coordinates": {"lat": 39.9042, "lng": 116.4074}}, {"id": "CN-TJ", "name": "天津市", "name_en": "Tianjin", "code": "TJ", "type": "直辖市", "administrative_center": "天津市", "coordinates": {"lat": 39.3434, "lng": 117.3616}}, {"id": "CN-HE", "name": "河北省", "name_en": "Hebei", "code": "HE", "type": "省", "administrative_center": "石家庄市", "coordinates": {"lat": 38.0428, "lng": 114.5149}}, {"id": "CN-SX", "name": "山西省", "name_en": "Shanxi", "code": "SX", "type": "省", "administrative_center": "太原市", "coordinates": {"lat": 37.5777, "lng": 112.2922}}, {"id": "CN-NM", "name": "内蒙古自治区", "name_en": "Inner Mongolia", "code": "NM", "type": "自治区", "administrative_center": "呼和浩特市", "coordinates": {"lat": 40.8426, "lng": 111.7519}}, {"id": "CN-LN", "name": "辽宁省", "name_en": "Liaoning", "code": "LN", "type": "省", "administrative_center": "沈阳市", "coordinates": {"lat": 41.2956, "lng": 122.6085}}, {"id": "CN-JL", "name": "吉林省", "name_en": "Jilin", "code": "JL", "type": "省", "administrative_center": "长春市", "coordinates": {"lat": 43.8171, "lng": 125.3235}}, {"id": "CN-HL", "name": "黑龙江省", "name_en": "Heilongjiang", "code": "HL", "type": "省", "administrative_center": "哈尔滨市", "coordinates": {"lat": 45.7732, "lng": 126.6573}}, {"id": "CN-SH", "name": "上海市", "name_en": "Shanghai", "code": "SH", "type": "直辖市", "administrative_center": "上海市", "coordinates": {"lat": 31.2304, "lng": 121.4737}}, {"id": "CN-JS", "name": "江苏省", "name_en": "Jiangsu", "code": "JS", "type": "省", "administrative_center": "南京市", "coordinates": {"lat": 32.0615, "lng": 118.7633}}, {"id": "CN-ZJ", "name": "浙江省", "name_en": "Zhejiang", "code": "ZJ", "type": "省", "administrative_center": "杭州市", "coordinates": {"lat": 30.2741, "lng": 120.1551}}, {"id": "CN-AH", "name": "安徽省", "name_en": "Anhui", "code": "AH", "type": "省", "administrative_center": "合肥市", "coordinates": {"lat": 31.8612, "lng": 117.2272}}, {"id": "CN-FJ", "name": "福建省", "name_en": "Fujian", "code": "FJ", "type": "省", "administrative_center": "福州市", "coordinates": {"lat": 26.0745, "lng": 119.2965}}, {"id": "CN-JX", "name": "江西省", "name_en": "Jiangxi", "code": "JX", "type": "省", "administrative_center": "南昌市", "coordinates": {"lat": 28.6765, "lng": 115.8581}}, {"id": "CN-SD", "name": "山东省", "name_en": "Shandong", "code": "SD", "type": "省", "administrative_center": "济南市", "coordinates": {"lat": 36.6512, "lng": 117.1201}}, {"id": "CN-HA", "name": "河南省", "name_en": "Henan", "code": "HA", "type": "省", "administrative_center": "郑州市", "coordinates": {"lat": 34.7466, "lng": 113.6254}}, {"id": "CN-HB", "name": "湖北省", "name_en": "Hubei", "code": "HB", "type": "省", "administrative_center": "武汉市", "coordinates": {"lat": 30.5928, "lng": 114.3055}}, {"id": "CN-HN", "name": "湖南省", "name_en": "Hunan", "code": "HN", "type": "省", "administrative_center": "长沙市", "coordinates": {"lat": 28.2282, "lng": 112.9388}}, {"id": "CN-GD", "name": "广东省", "name_en": "Guangdong", "code": "GD", "type": "省", "administrative_center": "广州市", "coordinates": {"lat": 23.1291, "lng": 113.2644}}, {"id": "CN-GX", "name": "广西壮族自治区", "name_en": "Guangxi", "code": "GX", "type": "自治区", "administrative_center": "南宁市", "coordinates": {"lat": 22.8174, "lng": 108.3669}}, {"id": "CN-HI", "name": "海南省", "name_en": "Hainan", "code": "HI", "type": "省", "administrative_center": "海口市", "coordinates": {"lat": 20.0444, "lng": 110.1989}}, {"id": "CN-CQ", "name": "重庆市", "name_en": "Chongqing", "code": "CQ", "type": "直辖市", "administrative_center": "重庆市", "coordinates": {"lat": 29.5647, "lng": 106.5507}}, {"id": "CN-SC", "name": "四川省", "name_en": "Sichuan", "code": "SC", "type": "省", "administrative_center": "成都市", "coordinates": {"lat": 30.5728, "lng": 104.0668}}, {"id": "CN-GZ", "name": "贵州省", "name_en": "Guizhou", "code": "GZ", "type": "省", "administrative_center": "贵阳市", "coordinates": {"lat": 26.647, "lng": 106.6302}}, {"id": "CN-YN", "name": "云南省", "name_en": "Yunnan", "code": "YN", "type": "省", "administrative_center": "昆明市", "coordinates": {"lat": 25.0389, "lng": 102.7183}}, {"id": "CN-XZ", "name": "西藏自治区", "name_en": "Tibet", "code": "XZ", "type": "自治区", "administrative_center": "拉萨市", "coordinates": {"lat": 29.6456, "lng": 91.1409}}, {"id": "CN-SHX", "name": "陕西省", "name_en": "Shaanxi", "code": "SHX", "type": "省", "administrative_center": "西安市", "coordinates": {"lat": 34.3416, "lng": 108.9398}}, {"id": "CN-GS", "name": "甘肃省", "name_en": "Gansu", "code": "GS", "type": "省", "administrative_center": "兰州市", "coordinates": {"lat": 36.0611, "lng": 103.8343}}, {"id": "CN-QH", "name": "青海省", "name_en": "Qinghai", "code": "QH", "type": "省", "administrative_center": "西宁市", "coordinates": {"lat": 36.6233, "lng": 101.7782}}, {"id": "CN-NX", "name": "宁夏回族自治区", "name_en": "Ningxia", "code": "NX", "type": "自治区", "administrative_center": "银川市", "coordinates": {"lat": 38.4681, "lng": 106.2586}}, {"id": "CN-XJ", "name": "新疆维吾尔自治区", "name_en": "Xinjiang", "code": "XJ", "type": "自治区", "administrative_center": "乌鲁木齐市", "coordinates": {"lat": 43.8256, "lng": 87.6168}}]